{"type":"FeatureCollection","name":"Starożytne cywilizacje","metadata":{"version":3,"coordinate_system":"WGS84 / longitude, latitude (RFC 7946)","purpose":"Wskazywanie regionów starożytnych cywilizacji, bez wspólnej daty historycznej.","limitations":"Educational approximations from Egypt to northern China, without a shared historical date. Modern physical base geography; not political boundaries.","physical_data_source":"https://www.naturalearthdata.com/downloads/50m-physical-vectors/","physical_data_license":"Public domain","region_geometry":"Original educational approximation; physical data do not provide ancient political boundaries.","historical_context_sources":["https://whc.unesco.org/en/list/138/","https://whc.unesco.org/en/list/1114/","https://www.metmuseum.org/it/essays/neolithic-period-in-china"]},"features":[{"type":"Feature","id":"ancient_egypt","properties":{"id":"ancient_egypt","label":"Starożytny Egipt","short_label":"Egipt","quiz_answer":"Egipt","color":"#DBA329","boundary_type":"approximate_educational_region","note":"Dolina Nilu do okolic Asuanu, delta i Fajum. Umowny pas 18 km po obu stronach współczesnej osi Nilu; nie granica państwa ani dokładny zasięg upraw.","name_pl":"Starożytny Egipt","marker_coordinates":[30.93,27.8]},"geometry":{"type":"Polygon","coordinates":[[[30.95760417999563,28.178560674764427],[30.924599945818162,28.214768671866455],[30.935809628799106,28.254290806395378],[30.989270709618562,28.36340511151797],[31.018028957917704,28.47253371814645],[31.020556412218017,28.566202288528885],[31.036557436437757,28.641366151746816],[31.06819743999881,28.726120710936865],[31.151497619165976,28.85741321009657],[31.306778051869173,29.057191801027084],[31.399023944930306,29.243825498197292],[31.403976087520256,29.272800011778532],[31.401245837162122,29.36911088232681],[31.416731605142854,29.44993102507076],[31.457477672227782,29.55824462653952],[31.466719270404067,29.60401869010566],[31.472826481031465,29.79046433326708],[31.441744630105628,30.010639687950988],[31.43743161196001,30.108574192690924],[31.85,30.55],[32.28,31.1],[32.291540118224134,31.273101773361972],[32.250586,31.294922],[32.216211,31.29375],[32.242773,31.246533],[32.281836,31.200879],[32.206543,31.119043],[32.101758,31.092822],[32.065625,31.152979],[32.008496,31.220508],[31.902051,31.240186],[31.771094,31.292578],[31.875879,31.413721],[31.892188,31.482471],[32.076074,31.344482],[32.136035,31.341064],[31.964258,31.5021],[31.888965,31.541406],[31.606543,31.455762],[31.524414,31.458252],[31.193945,31.587598],[31.08291,31.60332],[31.051953,31.591553],[31.030859,31.507568],[31.001758,31.462793],[30.841406,31.439893],[30.700488,31.403857],[30.562988,31.416992],[30.88418,31.522363],[30.923535,31.566846],[30.570996,31.472998],[30.395117,31.457617],[30.34375,31.402734],[30.312305,31.357031],[30.262305,31.316846],[30.222656,31.258398],[30.127539,31.255664],[30.049414,31.26543],[29.929785,31.22749],[29.73249924023556,31.101501367575995],[29.9,30.8],[30.35,30.2],[31.0916598717895,29.83398603729869],[31.100448197864324,29.77443354111487],[31.09806581829681,29.7],[30.65,29.7],[30.25,29.5],[30.45,29.15],[30.82,29.08],[30.95845936915881,29.18384452686911],[30.83334365275783,29.021920792969823],[30.72350992613742,28.841747146112024],[30.67685434915272,28.71099901578503],[30.653782869105868,28.597418988973338],[30.65216671966099,28.51231790390362],[30.636582458476923,28.454809185695822],[30.589154205348322,28.362330158136935],[30.55856777739406,28.252748772162324],[30.56139630488722,28.155560071973575],[30.571525627443606,28.11115250175384],[30.615583694716637,28.038206090830705],[30.65661237315607,27.991629695971017],[30.673316793448304,27.965171014901287],[30.68593098901882,27.939392350854888],[30.6953859650256,27.88535574653326],[30.70637455369536,27.62828434892176],[30.686502729324733,27.50855417227236],[30.692068568207095,27.459324618477858],[30.71394624286693,27.413901893266452],[30.837662950128514,27.243232521739674],[31.15889026807939,26.999032731207016],[31.18916907629691,26.966434058410705],[31.21846618990655,26.919456229187006],[31.4021004360978,26.671753631687956],[31.531389148921484,26.525538796820864],[31.556342471696905,26.473762473625108],[31.602787958336005,26.427569331623022],[31.647713646812534,26.398347891535696],[31.669473895375127,26.356033669817194],[31.729543367939904,26.274224760128238],[31.8228961455973,26.19456805942439],[31.86175305081902,26.115167359865698],[31.89745487587796,26.077012850410924],[31.92768428808377,26.05786311711814],[31.986765088524272,26.034863384483735],[32.04691964812507,26.02719311077553],[32.09334730404217,25.969733049775456],[32.118591972102045,25.948165234188647],[32.14794122290968,25.931409645042574],[32.19723266525625,25.91661066550559],[32.347282656735366,25.905186394211437],[32.39964318714307,25.908413374217137],[32.58405065699986,25.977571002376322],[32.584502742885036,25.912427992835912],[32.55612130362869,25.853058156921893],[32.3922139798351,25.72273366809233],[32.36916316828632,25.69461060558631],[32.330192244015535,25.632661923653284],[32.318270768721646,25.60003601856096],[32.31414065561904,25.56586908147071],[32.32624651172032,25.45389813654066],[32.37914908309492,25.279897681694795],[32.484448700222686,25.14284073871096],[32.510718217424376,25.116440513953425],[32.655339201710454,25.022125388241975],[32.70110321357446,24.984104919574033],[32.71998860741449,24.904214892109632],[32.74333796017153,24.758729608466794],[32.7426719920467,24.66000124192051],[32.71650477227734,24.562820261883797],[32.712399676222624,24.483616254700788],[32.71786670456536,24.437243534517474],[32.73585135882981,24.396845868117023],[32.736146098532174,24.335271998515534],[32.709156266006865,24.04843552633857],[32.712853290533744,24.016673584157335],[32.72318369718104,23.986195766509706],[32.739746135210964,23.958171795788843],[32.76190128666909,23.933676407048303],[32.788796859140746,23.9136483832286],[32.819400467040325,23.89885486670792],[32.852539120373926,23.889862260017164],[32.90420994347616,23.887938882432707],[32.93804319677041,23.89443858538913],[32.96986942667974,23.906908350830683],[32.998469257047894,23.924870855977662],[33.02274555184679,23.947638232573766],[33.04176528066851,23.974338135551992],[33.054795385532216,24.003946874075687],[33.06133127072114,24.035328390861185],[33.08918931917205,24.313732575492438],[33.08873360808974,24.471407537914892],[33.07116147427796,24.52636203219675],[33.09649619756725,24.624412980103624],[33.09850916407422,24.769036138453874],[33.07099990416409,24.95696910631835],[33.03934654909855,25.08940326164834],[33.00085818022323,25.165582502677733],[32.96767940409105,25.20285272644661],[32.88704860486093,25.269976120732604],[32.7558826703563,25.356098827527735],[32.7046088447888,25.420747618655422],[32.67773978757676,25.51859058195513],[32.843270061574245,25.651992520661306],[32.86822928923119,25.689334156606034],[32.93484425060963,25.830001184640796],[32.943312375664874,25.88000086308287],[32.94198526217084,26.049317623328538],[32.90193178487886,26.18786024741122],[32.874755888510094,26.23061626495192],[32.834636355927074,26.2640114693254],[32.76305297693028,26.306541638757672],[32.73121487081068,26.31864691840923],[32.697393612016704,26.325017781200643],[32.64568970562777,26.323366639063668],[32.501329998922415,26.29849444608747],[32.32640999312834,26.23319862503569],[32.28895259822991,26.279165734475377],[32.26130678275487,26.302068652097383],[32.228990112711344,26.319275216604186],[32.14182291526107,26.346074378862827],[32.10036122918639,26.405442319577872],[32.00973221611484,26.481169229396585],[31.99466999689576,26.502031474189675],[31.984334201893166,26.55842557626893],[31.961567558678922,26.60087443363246],[31.909450067530727,26.65742399984075],[31.86941317341916,26.68439778808138],[31.82948688503333,26.7401360886286],[31.802233591947218,26.76251833341647],[31.7655184907338,26.78121629893536],[31.69950703602965,26.857309762589377],[31.524685311563168,27.094013519139118],[31.49177190737089,27.147231770191688],[31.445122479725025,27.20046608854059],[31.3975787143585,27.245539178295147],[31.35660798931616,27.27229323661194],[31.109018520194777,27.462822468157928],[31.058660081185824,27.53516160989384],[31.071192658517784,27.623706503584437],[31.058101610550025,27.92661988873583],[31.03647554044841,28.037025641936477],[30.997266350433136,28.117097913867106],[30.95760417999563,28.178560674764427]]]}},{"type":"Feature","id":"ancient_israel","properties":{"id":"ancient_israel","label":"Starożytny Izrael i Juda","short_label":"Izrael","quiz_answer":"Izrael","color":"#47966A","boundary_type":"approximate_educational_region","note":"Autorski przybliżony region Izraela i Judy, głównie wyżyny, Galilea i część Zajordania. Nie granice współczesnego Izraela ani rekonstrukcja jednego okresu.","name_pl":"Izrael i Juda","marker_coordinates":[35.3,32.1]},"geometry":{"type":"Polygon","coordinates":[[[35.33,33.12],[35.101069553883846,33.05589947508747],[35.077051,32.967187],[35.06540585550343,32.944192452399854],[35.04,32.76],[34.91106097875885,32.57580139822693],[34.88403978767829,32.48019893839145],[34.85,32.31],[34.87,32.06],[34.91,31.82],[34.85,31.55],[34.67,31.3],[34.71,31.05],[34.97,30.92],[35.27,31.04],[35.48,31.35],[35.59,31.65],[35.68,31.95],[35.82,32.12],[35.98,32.4],[35.93,32.68],[35.87,32.97],[35.79,33.24],[35.62,33.29],[35.33,33.12]]]}},{"type":"Feature","id":"mesopotamia","properties":{"id":"mesopotamia","label":"Mezopotamia","short_label":"Mezopotamia","quiz_answer":"Mezopotamia","color":"#C87852","boundary_type":"approximate_educational_region","note":"Przybliżony region między Eufratem i Tygrysem wraz z pasem 25 km wokół obwiedni rzek. Nie granice Sumeru, Babilonii ani Asyrii.","name_pl":"Mezopotamia","marker_coordinates":[43.5,33.5]},"geometry":{"type":"Polygon","coordinates":[[[37.88799235981673,36.32204058069482],[37.84350725985664,36.26744859205688],[37.79851291083382,36.174890143984314],[37.7886793268116,36.12786519904176],[37.788416032381726,36.103990428694914],[37.79719753834374,36.0568540441095],[37.81796594882384,35.99648716388395],[37.85561385137648,35.939826818911826],[37.94930616776398,35.855101294766726],[38.07514899530148,35.77379653595552],[38.12354463791219,35.749030235360465],[38.269163998848235,35.69191014860013],[38.51753262488032,35.640145208624084],[39.40809302315682,35.589942614964905],[39.558262962628405,35.542699859698466],[39.62583179045045,35.5038428663576],[39.66152768307585,35.451662262651055],[39.68206587693443,35.430202306682865],[39.816277497270704,35.30777195062526],[39.98173682295832,35.198926738994764],[40.062025087786864,35.117818762087374],[40.16327614324672,35.05052251911524],[40.190709589341346,34.98103295999459],[40.2416119564186,34.89725935672242],[40.27653221371456,34.860167597891824],[40.33030544993512,34.813901409129166],[40.39891895645722,34.70470764446503],[40.52490276392138,34.586888587003756],[40.64966951157232,34.496412601679225],[40.65949440749061,34.47769303413778],[40.684205157845554,34.39634575409131],[40.70568066060832,34.35245736483483],[40.7573499857865,34.29597705039374],[40.82555927894947,34.25061935129991],[40.89376201283506,34.218653181617626],[41.06597300775205,34.16692149332148],[42.07441344787558,34.072021800834094],[42.11265458144668,34.057377593523185],[42.13358842022668,34.01122069055708],[42.18859482298926,33.937912728920416],[42.216272931954904,33.90785036529567],[42.264334145464495,33.869585371457795],[42.2928663035216,33.79863649455798],[42.31932482461198,33.759161846806485],[42.35471543633408,33.72488421758527],[42.396187238506016,33.69344063583936],[42.43943734817118,33.670342064747814],[42.47964858928569,33.65586712213347],[42.531389216233265,33.56165624547782],[42.55804897290081,33.52894106799082],[42.71405826350185,33.397764152976386],[42.8274792457513,33.327630355095344],[42.882710375660935,33.30677988421223],[42.97348580915259,33.28331814152511],[43.41426925710116,33.20504265479471],[43.549389997934554,33.15558958237058],[43.60021381739143,33.112985126886485],[43.64408927743143,33.06542736445813],[43.70307249003637,33.02407066704159],[43.8918085468192,32.92722943992403],[43.9135136493754,32.89908044716367],[43.96843852005846,32.80573209177197],[43.9885509091549,32.753045774613106],[43.987431669549245,32.719381169235795],[43.970731753536306,32.64610051462063],[43.96951864185199,32.621094351262435],[43.996631162645606,32.44250201278678],[44.07420147934032,32.25132642767983],[44.08787060298536,32.19473874470232],[44.09496982762522,32.11781850483079],[44.10270974510528,32.09103951864945],[44.14213121107114,31.98679071141207],[44.1869668290613,31.912672211424674],[44.202692479008036,31.870864902425023],[44.2109120662338,31.800704567716522],[44.21157606887936,31.742387246570775],[44.23118594276919,31.675711575322165],[44.31622797985833,31.540817266468228],[44.35090148623299,31.498911330823155],[44.61547077943188,31.29692498562482],[44.68778642793946,31.265382792775313],[44.931255305076725,31.21844572391181],[45.189383012356,31.114924378950008],[45.3721651736641,31.057072375630092],[45.42721602460937,31.02634327262045],[45.59619288013689,30.972820778243108],[45.942676187702,30.89486190503601],[46.14652624911106,30.813255058860705],[46.372559903982776,30.69935658904993],[46.45354145361238,30.67952535708984],[46.604773846992366,30.67803064719456],[47.51707930734635,30.747714032904526],[47.5900462925805,30.76906223723585],[47.63322954904249,30.793052173710524],[47.68566785880174,30.84137493111091],[47.71043124388065,30.880007628255257],[47.72586629171069,30.92206493184368],[47.73136531805612,30.965924653467138],[47.726702239945936,31.009892868746142],[47.70240953715058,31.08394430365728],[47.69570832243316,31.313264518258134],[47.68317915605314,31.359016329094477],[47.603230151233326,31.552103976976195],[47.57780695102053,31.589376474055175],[47.49000165509923,31.69359281084847],[47.430374070078024,31.776350285831185],[47.40939618276859,31.816599592719392],[47.38576849013005,31.906851155901336],[47.34543097929431,31.965948633975753],[47.24675018298541,32.04761053813353],[47.14067708713345,32.09451346780456],[47.0962443221274,32.15365299550705],[47.034820855647354,32.218630811314455],[46.990604506069715,32.25621615202209],[47.001567673035154,32.31133899450821],[46.99680490412828,32.399497134907804],[46.989467407108954,32.44012467067194],[46.973437570361504,32.47895854065213],[46.924185744836,32.55358006803611],[46.874075682399344,32.606785879219295],[46.80729429609505,32.64500731827336],[46.658747570777116,32.70392094560274],[46.45691803215597,32.75439541748811],[46.249530932970856,32.83571563236672],[46.19906508753679,32.850512520193355],[45.41051228706742,32.94008682144008],[45.15117330978471,33.09020680455171],[44.92016584053739,33.166204310696195],[44.832450254050535,33.21409235466768],[44.78880308388884,33.247004511840686],[44.69661826232153,33.36856736144151],[44.5988644444469,33.474244979275916],[44.59030484507173,33.50757600248821],[44.5922271465443,33.523149930319555],[44.6456500413705,33.60318652856448],[44.67374905074794,33.66950999411084],[44.6849529324798,33.7100671882787],[44.68235743737339,33.82492198411549],[44.6966846741967,33.883926349995775],[44.69728768471152,33.9306872319734],[44.686194851863014,33.97652965729663],[44.66188341969185,34.04108934806241],[44.639309904429695,34.084354554191556],[44.606291721964325,34.12275497523775],[44.56427475542407,34.15459312548271],[44.47020261526676,34.210931731520176],[44.087134724601924,34.3414707089438],[44.041811952144506,34.52863712573748],[43.96558572373035,34.706011020162784],[43.87181569410475,34.86332671184305],[43.8346605357814,34.93856246218619],[43.84105462556072,34.980483326641],[43.841832276300806,35.02745091926919],[43.82073408721673,35.095552357274215],[43.7467981150452,35.233929488100216],[43.63696592432213,35.36920465075432],[43.56396944222391,35.47308760042688],[43.53493637592633,35.55049781216542],[43.57824230958843,35.65833142839408],[43.588377671925414,35.722675846174546],[43.61809111907931,35.82868674985652],[43.62329243168111,35.96300293220229],[43.58606229692051,36.13567829383933],[43.51137876230366,36.30035660956614],[43.41220658150243,36.44434399293238],[43.382941597232524,36.4785066364892],[43.34631511609306,36.5077173386401],[43.175239140533144,36.61729209675728],[43.1809428408384,36.67567574757764],[43.171820173261246,36.72841327338388],[43.148877331395994,36.78793585708297],[43.122532522006196,36.82375843806549],[43.088349506013174,36.855036882805294],[43.047498567803956,36.88069210632568],[42.77105366499805,37.02381094765551],[42.7425127344723,37.06726306147368],[42.6433532942848,37.1592827740576],[42.61556674448326,37.20939436278767],[42.57486982474426,37.314151412510334],[42.552753030285004,37.34905036407814],[42.46392626690447,37.442958099985276],[42.42175549601424,37.47273871444534],[42.34659497322539,37.50341385257835],[42.26324830566991,37.51495122508588],[37.84896620184963,37.51529229968631],[37.76683076803114,37.50406820595139],[37.71591146452937,37.48609926182457],[37.67040118316309,37.460512806451895],[37.63207062996513,37.42830728264686],[37.60240497624984,37.39073822262945],[37.57654704483267,37.32757060126689],[37.5669145091181,37.23270428149642],[37.56812263719778,37.19102360902269],[37.582853844364415,37.08967865849618],[37.5930654138514,37.05034666007785],[37.611816828255414,37.01310682380909],[37.65908557450248,36.941008729745256],[37.68979679199511,36.9088057324538],[37.729754001075705,36.879999399995846],[37.75480307942754,36.77797727652115],[37.785822258798774,36.68346495743154],[37.80630174975367,36.63988166913878],[37.83745507278632,36.600640407746624],[37.88376754755052,36.55378612002813],[37.90592165478411,36.53390529823216],[37.96419638322666,36.49536823093222],[37.9214786440934,36.41788148056118],[37.88799235981673,36.32204058069482]]]}},{"type":"Feature","id":"ancient_indus","properties":{"id":"ancient_indus","name_pl":"Cywilizacja doliny Indusu","label":"Cywilizacja doliny Indusu","marker_coordinates":[70.5,28.5],"boundary_type":"approximate_educational_region","note":"Broad school-map approximation of the Indus valley around Harappa and Mohenjo-daro; not a political boundary."},"geometry":{"type":"Polygon","coordinates":[[[72.4,33.2],[74.1,31.1],[73.5,29.4],[72.1,27.6],[71.2,25.8],[69.2,23.9],[67.4,24],[67.7,26],[69,28],[70.1,30.1],[71.2,32.1],[72.4,33.2]]]}},{"type":"Feature","id":"ancient_china","properties":{"id":"ancient_china","name_pl":"Starożytne Chiny","label":"Starożytne Chiny","marker_coordinates":[111.4,36],"boundary_type":"approximate_educational_region","note":"Broad school-map approximation of early northern Chinese civilization around the Yellow River; not all of modern China."},"geometry":{"type":"Polygon","coordinates":[[[103,35],[105.5,37],[109,38.8],[113.1,39],[117.1,37.5],[117,35.3],[114.2,33.7],[109.8,33.3],[106,33.6],[103,35]]]}}]}
